n
 
Horizons> 643
[?1h=*******************************************************************************
 Revised: Aug 11, 2014                Hati / (Saturn)                       643

 Newly discovered irregular Saturnian satellite.
*******************************************************************************
[K[?1l> Select ... [E]phemeris, [F]tp, [M]ail, [R]edisplay, ?, <cr>: 


 y
 Working ...   /  
[?1h=*******************************************************************************
Ephemeris / PORT_LOGIN Sat Feb 24 23:44:33 2018 Pasadena, USA    / Horizons    
*******************************************************************************
Target body name: Hati (643)                      {source: sat368}
Center body name: Saturn Barycenter (6)           {source: sat368}
Center-site name: BODY CENTER
*******************************************************************************
Start time      : A.D. 2000-Jan-01 12:00:00.0000 TDB
Stop  time      : A.D. 2000-Jan-01 12:01:00.0000 TDB
Step-size       : 1440 minutes
*******************************************************************************
Center geodetic : 0.00000000,0.00000000,0.0000000 {E-lon(deg),Lat(deg),Alt(km)}
Center cylindric: 0.00000000,0.00000000,0.0000000 {E-lon(deg),Dxy(km),Dz(km)}
Center radii    : (undefined)                                                  
Keplerian GM    : 8.4597060732450320E-08 au^3/d^2
Output units    : AU-D, deg, Julian Day Number (Tp)                            
Output type     : GEOMETRIC osculating elements
Output format   : 10
Reference frame : ICRF/J2000.0                                                 
Coordinate systm: Ecliptic and Mean Equinox of Reference Epoch                 
*******************************************************************************
JDTDB
   EC    QR   IN
   OM    W    Tp
   N     MA   TA
   A     AD   PR
*******************************************************************************
$$SOE
2451545.000000000 = A.D. 2000-Jan-01 12:00:00.0000 TDB 
 EC= 4.277983937125878E-01 QR= 7.425837523482680E-02 IN= 1.604997549417833E+02
 OM= 3.163179050406656E+02 W = 1.033983267011186E+01 Tp=  2452040.803790364414
 N = 3.564558235584117E-01 MA= 1.832678515821877E+02 TA= 1.814491246663206E+02
 A = 1.297765934573896E-01 AD= 1.852948116799524E-01 PR= 1.009942820981875E+03
$$EOE
*******************************************************************************
Coordinate system description:

  Ecliptic and Mean Equinox of Reference Epoch

    Reference epoch: J2000.0
    XY-plane: plane of the Earth's orbit at the reference epoch
              Note: obliquity of 84381.448 arcseconds wrt ICRF equator (IAU76)
    X-axis  : out along ascending node of instantaneous plane of the Earth's
              orbit and the Earth's mean equator at the reference epoch
    Z-axis  : perpendicular to the xy-plane in the directional (+ or -) sense
              of Earth's north pole at the reference epoch.

  Symbol meaning [1 au= 149597870.700 km, 1 day= 86400.0 s]:

    JDTDB    Julian Day Number, Barycentric Dynamical Time
      EC     Eccentricity, e                                                   
      QR     Periapsis distance, q (au)                                        
      IN     Inclination w.r.t XY-plane, i (degrees)                           
      OM     Longitude of Ascending Node, OMEGA, (degrees)                     
      W      Argument of Perifocus, w (degrees)                                
      Tp     Time of periapsis (Julian Day Number)                             
      N      Mean motion, n (degrees/day)                                      
      MA     Mean anomaly, M (degrees)                                         
      TA     True anomaly, nu (degrees)                                        
      A      Semi-major axis, a (au)                                           
      AD     Apoapsis distance (au)                                            
      PR     Sidereal orbit period (day)                                       

Geometric states/elements have no aberrations applied.

 Computations by ...
     Solar System Dynamics Group, Horizons On-Line Ephemeris System
     4800 Oak Grove Drive, Jet Propulsion Laboratory
     Pasadena, CA  91109   USA
     Information: http://ssd.jpl.nasa.gov/
     Connect    : telnet://ssd.jpl.nasa.gov:6775  (via browser)
                  http://ssd.jpl.nasa.gov/?horizons
                  telnet ssd.jpl.nasa.gov 6775    (via command-line)
     Author     : Jon.D.Giorgini@jpl.nasa.gov
*******************************************************************************
[K[?1l> >>> Select... [A]gain, [N]ew-case, [F]tp, [K]ermit, [M]ail, [R]edisplay, ? : 
